start=new Date('2022-07-29T00:00:00.000Z').valueOf();
sats=[{"RA_OF_ASC_NODE":"96.7019","MEAN_MOTION":"15.06397102","PERIAPSIS":"546.416","EPHEMERIS_TYPE":"0","PERIOD":"95.592","NORAD_CAT_ID":"46786","GP_ID":"209043206","ELEMENT_SET_NO":"999","EPOCH":"2022-07-28T19:58:29.450784","SITE":"AFETR","MEAN_MOTION_DDOT":"0.0000000000000","REV_AT_EPOCH":"9784","OBJECT_NAME":"STARLINK-1893","OBJECT_ID":"2020-074AZ","APOAPSIS":"548.029","BSTAR":"0.00003423900000","CENTER_NAME":"EARTH","ARG_OF_PERICENTER":"79.3239","MEAN_ANOMALY":"280.7881","RCS_SIZE":"LARGE","MEAN_ELEMENT_THEORY":"SGP4","TLE_LINE1":"1 46786U 20074AZ  22209.83228531  .00000229  00000-0  34239-4 0  9999","SEMIMAJOR_AXIS":"6925.357","OBJECT_TYPE":"PAYLOAD","LAUNCH_DATE":"2020-10-24","MEAN_MOTION_DOT":"0.00000229","TLE_LINE2":"2 46786  53.0560  96.7019 0001165  79.3239 280.7881 15.06397102 97846","REF_FRAME":"TEME","FILE":"3524061","CLASSIFICATION_TYPE":"U","DECAY_DATE":null,"TIME_SYSTEM":"UTC","ECCENTRICITY":"0.00011650","COUNTRY_CODE":"US","INCLINATION":"53.0560"},{"MEAN_MOTION_DOT":"0.00003098","SEMIMAJOR_AXIS":"6925.305","LAUNCH_DATE":"2020-10-24","OBJECT_TYPE":"PAYLOAD","FILE":"3524113","CLASSIFICATION_TYPE":"U","TLE_LINE2":"2 46787  53.0545  96.7177 0001528  85.9743 274.1420 15.06414095 98164","REF_FRAME":"TEME","INCLINATION":"53.0545","TIME_SYSTEM":"UTC","DECAY_DATE":null,"COUNTRY_CODE":"US","ECCENTRICITY":"0.00015280","ARG_OF_PERICENTER":"85.9743","MEAN_ANOMALY":"274.1420","CENTER_NAME":"EARTH","MEAN_ELEMENT_THEORY":"SGP4","TLE_LINE1":"1 46787U 20074BA  22209.82491769  .00003098  00000-0  22673-3 0  9999","RCS_SIZE":"LARGE","SITE":"AFETR","EPOCH":"2022-07-28T19:47:52.888416","REV_AT_EPOCH":"9816","MEAN_MOTION_DDOT":"0.0000000000000","OBJECT_NAME":"STARLINK-1899","OBJECT_ID":"2020-074BA","APOAPSIS":"548.229","BSTAR":"0.00022673000000","MEAN_MOTION":"15.06414095","PERIAPSIS":"546.112","RA_OF_ASC_NODE":"96.7177","EPHEMERIS_TYPE":"0","PERIOD":"95.591","NORAD_CAT_ID":"46787","GP_ID":"209064899","ELEMENT_SET_NO":"999"},{"ECCENTRICITY":"0.00017870","COUNTRY_CODE":"US","TIME_SYSTEM":"UTC","DECAY_DATE":null,"INCLINATION":"53.0532","LAUNCH_DATE":"2020-10-24","OBJECT_TYPE":"PAYLOAD","SEMIMAJOR_AXIS":"6925.337","MEAN_MOTION_DOT":"0.00001726","REF_FRAME":"TEME","TLE_LINE2":"2 46788  53.0532  96.7620 0001787  65.3755 294.7420 15.06403683 98165","FILE":"3524113","CLASSIFICATION_TYPE":"U","RCS_SIZE":"LARGE","TLE_LINE1":"1 46788U 20074BB  22209.81754420  .00001726  00000-0  13471-3 0  9997","MEAN_ELEMENT_THEORY":"SGP4","CENTER_NAME":"EARTH","MEAN_ANOMALY":"294.7420","ARG_OF_PERICENTER":"65.3755","APOAPSIS":"548.440","OBJECT_ID":"2020-074BB","OBJECT_NAME":"STARLINK-1929","BSTAR":"0.00013471000000","EPOCH":"2022-07-28T19:37:15.818880","SITE":"AFETR","MEAN_MOTION_DDOT":"0.0000000000000","REV_AT_EPOCH":"9816","GP_ID":"209065150","NORAD_CAT_ID":"46788","ELEMENT_SET_NO":"999","RA_OF_ASC_NODE":"96.7620","PERIAPSIS":"545.965","MEAN_MOTION":"15.06403683","PERIOD":"95.592","EPHEMERIS_TYPE":"0"},{"INCLINATION":"53.0548","ECCENTRICITY":"0.00015920","COUNTRY_CODE":"US","DECAY_DATE":null,"TIME_SYSTEM":"UTC","CLASSIFICATION_TYPE":"U","FILE":"3523967","REF_FRAME":"TEME","TLE_LINE2":"2 46789  53.0548 128.3078 0001592  47.9332 312.1792 15.06388108 97376","MEAN_MOTION_DOT":"0.00001483","OBJECT_TYPE":"PAYLOAD","LAUNCH_DATE":"2020-10-24","SEMIMAJOR_AXIS":"6925.385","TLE_LINE1":"1 46789U 20074BC  22209.50886258  .00001483  00000-0  11848-3 0  9995","MEAN_ELEMENT_THEORY":"SGP4","RCS_SIZE":"LARGE","MEAN_ANOMALY":"312.1792","ARG_OF_PERICENTER":"47.9332","CENTER_NAME":"EARTH","BSTAR":"0.00011848000000","APOAPSIS":"548.353","OBJECT_NAME":"STARLINK-1930","OBJECT_ID":"2020-074BC","REV_AT_EPOCH":"9737","MEAN_MOTION_DDOT":"0.0000000000000","SITE":"AFETR","EPOCH":"2022-07-28T12:12:45.726912","ELEMENT_SET_NO":"999","NORAD_CAT_ID":"46789","GP_ID":"209040838","PERIOD":"95.593","EPHEMERIS_TYPE":"0","MEAN_MOTION":"15.06388108","PERIAPSIS":"546.147","RA_OF_ASC_NODE":"128.3078"},{"CENTER_NAME":"EARTH","ARG_OF_PERICENTER":"78.5226","MEAN_ANOMALY":"281.5941","RCS_SIZE":"LARGE","TLE_LINE1":"1 46790U 20074BD  22209.87006585 -.00004023  00000-0 -25133-3 0  9991","MEAN_ELEMENT_THEORY":"SGP4","SEMIMAJOR_AXIS":"6925.344","LAUNCH_DATE":"2020-10-24","OBJECT_TYPE":"PAYLOAD","MEAN_MOTION_DOT":"-0.00004023","TLE_LINE2":"2 46790  53.0551 126.5356 0001593  78.5226 281.5941 15.06401506 97423","REF_FRAME":"TEME","CLASSIFICATION_TYPE":"U","FILE":"3523967","DECAY_DATE":null,"TIME_SYSTEM":"UTC","COUNTRY_CODE":"US","ECCENTRICITY":"0.00015930","INCLINATION":"53.0551","RA_OF_ASC_NODE":"126.5356","PERIAPSIS":"546.106","MEAN_MOTION":"15.06401506","EPHEMERIS_TYPE":"0","PERIOD":"95.592","NORAD_CAT_ID":"46790","GP_ID":"209041140","ELEMENT_SET_NO":"999","EPOCH":"2022-07-28T20:52:53.689440","SITE":"AFETR","MEAN_MOTION_DDOT":"0.0000000000000","REV_AT_EPOCH":"9742","OBJECT_NAME":"STARLINK-1931","OBJECT_ID":"2020-074BD","APOAPSIS":"548.312","BSTAR":"-0.00025133000000"},{"REF_FRAME":"TEME","TLE_LINE2":"2 46791  53.0558 128.2422 0001910  61.1436 298.9744 15.06399354 97697","FILE":"3523641","CLASSIFICATION_TYPE":"U","OBJECT_TYPE":"PAYLOAD","LAUNCH_DATE":"2020-10-24","SEMIMAJOR_AXIS":"6925.351","MEAN_MOTION_DOT":"0.00001420","COUNTRY_CODE":"US","ECCENTRICITY":"0.00019100","DECAY_DATE":null,"TIME_SYSTEM":"UTC","INCLINATION":"53.0558","CENTER_NAME":"EARTH","MEAN_ANOMALY":"298.9744","ARG_OF_PERICENTER":"61.1436","RCS_SIZE":"LARGE","MEAN_ELEMENT_THEORY":"SGP4","TLE_LINE1":"1 46791U 20074BE  22209.48673021  .00001420  00000-0  11423-3 0  9997","MEAN_MOTION_DDOT":"0.0000000000000","REV_AT_EPOCH":"9769","EPOCH":"2022-07-28T11:40:53.490144","SITE":"AFETR","BSTAR":"0.00011423000000","APOAPSIS":"548.538","OBJECT_NAME":"STARLINK-1933","OBJECT_ID":"2020-074BE","PERIOD":"95.592","EPHEMERIS_TYPE":"0","RA_OF_ASC_NODE":"128.2422","PERIAPSIS":"545.893","MEAN_MOTION":"15.06399354","ELEMENT_SET_NO":"999","GP_ID":"209030097","NORAD_CAT_ID":"46791"},{"MEAN_MOTION_DDOT":"0.0000000000000","REV_AT_EPOCH":"9788","EPOCH":"2022-07-28T20:17:04.065216","SITE":"AFETR","BSTAR":"0.00005281000000","APOAPSIS":"548.406","OBJECT_ID":"2020-074BF","OBJECT_NAME":"STARLINK-1934","PERIOD":"95.592","EPHEMERIS_TYPE":"0","RA_OF_ASC_NODE":"116.6226","PERIAPSIS":"545.984","MEAN_MOTION":"15.06406115","ELEMENT_SET_NO":"999","NORAD_CAT_ID":"46792","GP_ID":"209065651","REF_FRAME":"TEME","TLE_LINE2":"2 46792  53.0556 116.6226 0001749  65.8581 294.2591 15.06406115 97885","FILE":"3524113","CLASSIFICATION_TYPE":"U","OBJECT_TYPE":"PAYLOAD","LAUNCH_DATE":"2020-10-24","SEMIMAJOR_AXIS":"6925.330","MEAN_MOTION_DOT":"0.00000505","ECCENTRICITY":"0.00017490","COUNTRY_CODE":"US","TIME_SYSTEM":"UTC","DECAY_DATE":null,"INCLINATION":"53.0556","CENTER_NAME":"EARTH","MEAN_ANOMALY":"294.2591","ARG_OF_PERICENTER":"65.8581","RCS_SIZE":"LARGE","TLE_LINE1":"1 46792U 20074BF  22209.84518594  .00000505  00000-0  52810-4 0  9990","MEAN_ELEMENT_THEORY":"SGP4"},{"REV_AT_EPOCH":"9768","MEAN_MOTION_DDOT":"0.0000000000000","SITE":"AFETR","EPOCH":"2022-07-28T11:24:57.987360","BSTAR":"0.00007840000000","OBJECT_ID":"2020-074BG","OBJECT_NAME":"STARLINK-1941","APOAPSIS":"548.269","EPHEMERIS_TYPE":"0","PERIOD":"95.592","MEAN_MOTION":"15.06397002","PERIAPSIS":"546.176","RA_OF_ASC_NODE":"128.2974","ELEMENT_SET_NO":"999","NORAD_CAT_ID":"46793","GP_ID":"209031099","FILE":"3523641","CLASSIFICATION_TYPE":"U","TLE_LINE2":"2 46793  53.0552 128.2974 0001511  70.1458 289.9694 15.06397002 97687","REF_FRAME":"TEME","MEAN_MOTION_DOT":"0.00000886","SEMIMAJOR_AXIS":"6925.358","LAUNCH_DATE":"2020-10-24","OBJECT_TYPE":"PAYLOAD","INCLINATION":"53.0552","DECAY_DATE":null,"TIME_SYSTEM":"UTC","COUNTRY_CODE":"US","ECCENTRICITY":"0.00015110","ARG_OF_PERICENTER":"70.1458","MEAN_ANOMALY":"289.9694","CENTER_NAME":"EARTH","TLE_LINE1":"1 46793U 20074BG  22209.47567115  .00000886  00000-0  78400-4 0  9998","MEAN_ELEMENT_THEORY":"SGP4","RCS_SIZE":"LARGE"},{"SITE":"AFETR","EPOCH":"2022-07-28T11:35:34.842624","REV_AT_EPOCH":"9769","MEAN_MOTION_DDOT":"0.0000000000000","OBJECT_NAME":"STARLINK-1942","OBJECT_ID":"2020-074BH","APOAPSIS":"548.530","BSTAR":"0.00006915700000","MEAN_MOTION":"15.06401896","PERIAPSIS":"545.886","RA_OF_ASC_NODE":"128.2690","EPHEMERIS_TYPE":"0","PERIOD":"95.592","GP_ID":"209030845","NORAD_CAT_ID":"46794","ELEMENT_SET_NO":"999","MEAN_MOTION_DOT":"0.00000749","SEMIMAJOR_AXIS":"6925.343","LAUNCH_DATE":"2020-10-24","OBJECT_TYPE":"PAYLOAD","FILE":"3523641","CLASSIFICATION_TYPE":"U","TLE_LINE2":"2 46794  53.0555 128.2690 0001909  63.5838 296.5347 15.06401896 97692","REF_FRAME":"TEME","INCLINATION":"53.0555","DECAY_DATE":null,"TIME_SYSTEM":"UTC","COUNTRY_CODE":"US","ECCENTRICITY":"0.00019090","ARG_OF_PERICENTER":"63.5838","MEAN_ANOMALY":"296.5347","CENTER_NAME":"EARTH","TLE_LINE1":"1 46794U 20074BH  22209.48304216  .00000749  00000-0  69157-4 0  9998","MEAN_ELEMENT_THEORY":"SGP4","RCS_SIZE":"LARGE"},{"RA_OF_ASC_NODE":"116.5936","MEAN_MOTION":"15.06395480","PERIAPSIS":"546.081","EPHEMERIS_TYPE":"0","PERIOD":"95.592","GP_ID":"209064900","NORAD_CAT_ID":"46796","ELEMENT_SET_NO":"999","EPOCH":"2022-07-28T20:32:59.748576","SITE":"AFETR","MEAN_MOTION_DDOT":"0.0000000000000","REV_AT_EPOCH":"9788","OBJECT_NAME":"STARLINK-1944","OBJECT_ID":"2020-074BK","APOAPSIS":"548.374","BSTAR":"0.00005121700000","CENTER_NAME":"EARTH","ARG_OF_PERICENTER":"61.0923","MEAN_ANOMALY":"299.0232","RCS_SIZE":"LARGE","MEAN_ELEMENT_THEORY":"SGP4","TLE_LINE1":"1 46796U 20074BK  22209.85624709  .00000481  00000-0  51217-4 0  9994","SEMIMAJOR_AXIS":"6925.362","LAUNCH_DATE":"2020-10-24","OBJECT_TYPE":"PAYLOAD","MEAN_MOTION_DOT":"0.00000481","TLE_LINE2":"2 46796  53.0542 116.5936 0001655  61.0923 299.0232 15.06395480 97882","REF_FRAME":"TEME","FILE":"3524113","CLASSIFICATION_TYPE":"U","TIME_SYSTEM":"UTC","DECAY_DATE":null,"ECCENTRICITY":"0.00016550","COUNTRY_CODE":"US","INCLINATION":"53.0542"}];
